[
    {
        "Altitude(m)": 617710.6368983806,
        "Argument of Periapsis(deg)": 0.0,
        "Eccentricity": 0.0,
        "Inclination(deg)": 60.0,
        "Latitude(deg)": -41.10265266334597,
        "Longitude(deg)": 54.96672116177189,
        "Mean Anomaly(deg)": -49.09089999999994,
        "RAAN(deg)": 184.99999999999997,
        "Satellite Name": "Test1 833",
        "Satellite Number": 833,
        "Semi-Major Axis(m)": 6980739.136638005,
        "Time(s)": 0
    },
    {
        "Altitude(m)": 617517.9350620668,
        "Argument of Periapsis(deg)": 0.00010418945913296404,
        "Eccentricity": 0.0,
        "Inclination(deg)": 60.0,
        "Latitude(deg)": -40.63685870513274,
        "Longitude(deg)": 55.46351322492856,
        "Mean Anomaly(deg)": -48.470793854538094,
        "RAAN(deg)": 184.99957995086024,
        "Satellite Name": "Test1 833",
        "Satellite Number": 833,
        "Semi-Major Axis(m)": 6980739.136638005,
        "Time(s)": 10
    }
]